{"type":"FeatureCollection","name":"gsi-interpretation-extent-20260730-yatsushiro","metadata":{"title":"令和8年熊本地震による斜面崩壊・土石流・堆積分布データ（八代地区）","source_page":"https://www.gsi.go.jp/BOUSAI/20260728_kumamoto_earthquake.html#9","tileset_id":"20260729kumamoto_syamenhoukai_dosekiryu_taiseki_yatsushiro","attribution":"国土地理院","license":"国土地理院コンテンツ利用規約（出典を明示すれば転載を含め自由に利用可）","license_url":"https://www.gsi.go.jp/kikakuchousei/kikakuchousei40182.html","published_at":"2026-07-30","interpreted_at":"2026-07-29T23:50:00+09:00","interpreted_from":"国土地理院が 2026-07-29 に撮影した空中写真（正射画像）の判読","retrieved_at":"2026-07-30","note":"斜面崩壊・堆積分布データに含まれる判読対象範囲。国土地理院が発災後オルソを判読した範囲そのもので、公的機関が示した被災地の範囲として利用できる"},"bbox":[130.4311,32.2444,130.7714,32.5894],"features":[{"type":"Feature","geometry":{"type":"MultiPolygon","coordinates":[[[[130.50384,32.515703],[130.569789,32.58821],[130.584788,32.578918],[130.586332,32.578546],[130.591515,32.584865],[130.608719,32.576037],[130.621291,32.589418],[130.636841,32.579847],[130.638826,32.582635],[130.640591,32.581892],[130.643348,32.58533],[130.659008,32.577338],[130.667941,32.586631],[130.681506,32.577524],[130.68327,32.580033],[130.684152,32.580033],[130.686358,32.583378],[130.697717,32.577431],[130.700805,32.575851],[130.704665,32.579568],[130.708304,32.583657],[130.712275,32.586445],[130.724185,32.578825],[130.72606,32.581427],[130.726942,32.580869],[130.729699,32.585144],[130.744367,32.577803],[130.746242,32.580219],[130.754734,32.573528],[130.761902,32.568509],[130.771386,32.562468],[130.757711,32.549826],[130.746793,32.538577],[130.742492,32.533371],[130.730582,32.518493],[130.72209,32.509472],[130.717237,32.505101],[130.71062,32.498404],[130.707532,32.495056],[130.70268,32.487335],[130.698269,32.484172],[130.694519,32.479335],[130.690439,32.471519],[130.687461,32.470031],[130.686248,32.467053],[130.681616,32.462866],[130.680293,32.462866],[130.676322,32.459051],[130.672904,32.453747],[130.6675,32.445092],[130.664522,32.441834],[130.660883,32.437274],[130.654707,32.429548],[130.649413,32.424521],[130.644451,32.417819],[130.64026,32.41335],[130.635849,32.410743],[130.630224,32.405995],[130.626144,32.40106],[130.623938,32.396497],[130.619637,32.392959],[130.614895,32.385136],[130.609711,32.382156],[130.604087,32.376568],[130.599235,32.371445],[130.597691,32.371165],[130.590522,32.361944],[130.588978,32.357751],[130.587545,32.35682],[130.58578,32.353187],[130.580045,32.345174],[130.576296,32.342006],[130.569789,32.334832],[130.567694,32.32952],[130.564606,32.328588],[130.562069,32.326911],[130.555563,32.319828],[130.551262,32.314795],[130.547953,32.312372],[130.542329,32.304822],[130.537256,32.299415],[130.526779,32.284872],[130.524022,32.281702],[130.513655,32.269208],[130.509133,32.264358],[130.503619,32.259602],[130.490054,32.2444],[130.484761,32.247758],[130.477593,32.251768],[130.475607,32.251302],[130.450353,32.264079],[130.451566,32.268835],[130.455315,32.27359],[130.452999,32.276201],[130.440648,32.282262],[130.442964,32.284872],[130.432046,32.291212],[130.446382,32.310135],[130.431053,32.318523],[130.463035,32.355143],[130.44936,32.362968],[130.46083,32.37843],[130.473622,32.391282],[130.486195,32.408695],[130.487959,32.408043],[130.490385,32.41214],[130.504832,32.403946],[130.510347,32.409626],[130.51156,32.40916],[130.525896,32.425545],[130.525345,32.426569],[130.532403,32.435319],[130.531962,32.435785],[130.539241,32.443789],[130.525566,32.452165],[130.537035,32.464355],[130.50406,32.483242],[130.515861,32.498962],[130.517184,32.498776],[130.521375,32.504729],[130.50384,32.515703]]]]},"properties":{"id":"gsi-syamen-yatsushiro-08","class":"interpretation_extent","class_ja":"判読範囲","class_source":"inferred from _fillColor, cross-checked against the published legend","area_m2":509039132,"upstream_fill_color":"#3388ff"}}]}