{"type":"FeatureCollection","name":"gsi-slope-failure-20260730-yatsushiro","metadata":{"title":"令和8年熊本地震による斜面崩壊・土石流・堆積分布データ（八代地区）","title_en":"Slope failure, debris flow and deposit distribution, Yatsushiro district","source_page":"https://www.gsi.go.jp/BOUSAI/20260728_kumamoto_earthquake.html#9","source_tiles":"https://maps.gsi.go.jp/xyz/20260729kumamoto_syamenhoukai_dosekiryu_taiseki_yatsushiro/2/3/1.geojson","tileset_id":"20260729kumamoto_syamenhoukai_dosekiryu_taiseki_yatsushiro","attribution":"国土地理院","license":"国土地理院コンテンツ利用規約（出典を明示すれば転載を含め自由に利用可）","license_url":"https://www.gsi.go.jp/kikakuchousei/kikakuchousei40182.html","published_at":"2026-07-30","interpreted_at":"2026-07-29T23:50:00+09:00","interpreted_from":"国土地理院が 2026-07-29 に撮影した空中写真（正射画像）の判読","field_verified":false,"min_feature_size_m":30,"class_decoding":"上流データの属性はスタイル情報のみ。class は _fillColor を公開凡例と対照して復号した","caveats":["現地調査は実施していないため、実際に崩壊等が生じた箇所でも表示できていない場合がある（偽陰性）","今回の地震によらない崩壊等の箇所を表示している場合がある（偽陽性）","長さ又は幅がおおむね30m以上のものだけを表示している"],"retrieved_at":"2026-07-30"},"bbox":[130.4311,32.2444,130.7714,32.5894],"features":[{"type":"Feature","geometry":{"type":"MultiPolygon","coordinates":[[[[130.561785,32.331871],[130.561946,32.33181],[130.562072,32.331745],[130.562129,32.331687],[130.562229,32.331609],[130.562347,32.331545],[130.562393,32.331519],[130.562462,32.331509],[130.562489,32.331561],[130.562493,32.331609],[130.562454,32.331697],[130.562401,32.331784],[130.562309,32.331839],[130.562171,32.3319],[130.562091,32.331945],[130.562049,32.331968],[130.561946,32.332003],[130.561785,32.331871]]]]},"properties":{"id":"gsi-syamen-yatsushiro-00","class":"slope_failure_debris_deposit","class_ja":"斜面崩壊・土石流・堆積範囲","class_source":"inferred from _fillColor, cross-checked against the published legend","area_m2":1476,"upstream_fill_color":"#ff3232"}},{"type":"Feature","geometry":{"type":"MultiPolygon","coordinates":[[[[130.619427,32.399517],[130.619448,32.399437],[130.61952,32.399351],[130.619588,32.399289],[130.619606,32.399228],[130.619552,32.399176],[130.619454,32.399156],[130.619338,32.399158],[130.619219,32.399191],[130.619169,32.399236],[130.619115,32.399296],[130.619124,32.399341],[130.619187,32.399402],[130.619282,32.399459],[130.619329,32.399502],[130.61938,32.399517],[130.619427,32.399517]]]]},"properties":{"id":"gsi-syamen-yatsushiro-01","class":"slope_failure_debris_deposit","class_ja":"斜面崩壊・土石流・堆積範囲","class_source":"inferred from _fillColor, cross-checked against the published legend","area_m2":1181,"upstream_fill_color":"#ff3232"}},{"type":"Feature","geometry":{"type":"MultiPolygon","coordinates":[[[[130.696668,32.540192],[130.696639,32.540314],[130.696541,32.540364],[130.696494,32.540457],[130.696497,32.540518],[130.696509,32.540534],[130.696541,32.540536],[130.696641,32.540521],[130.696651,32.540497],[130.696699,32.540499],[130.696795,32.540521],[130.69686,32.540526],[130.696943,32.540521],[130.697014,32.540517],[130.697092,32.540486],[130.697125,32.540402],[130.697101,32.540337],[130.697006,32.540287],[130.696947,32.54023],[130.696811,32.540203],[130.696734,32.540184],[130.696713,32.540182],[130.696668,32.540192]]]]},"properties":{"id":"gsi-syamen-yatsushiro-02","class":"slope_failure_debris_deposit","class_ja":"斜面崩壊・土石流・堆積範囲","class_source":"inferred from _fillColor, cross-checked against the published legend","area_m2":1593,"upstream_fill_color":"#ff3232"}},{"type":"Feature","geometry":{"type":"MultiPolygon","coordinates":[[[[130.553964,32.539864],[130.553956,32.539917],[130.554022,32.539986],[130.55412,32.540029],[130.55419,32.540058],[130.554334,32.540029],[130.554362,32.540075],[130.554322,32.540127],[130.554342,32.540198],[130.554393,32.540217],[130.554455,32.540246],[130.554538,32.540266],[130.554624,32.540319],[130.554728,32.540343],[130.554816,32.540343],[130.554898,32.540329],[130.554947,32.540314],[130.554955,32.540287],[130.5549,32.540283],[130.554843,32.54027],[130.554773,32.540227],[130.554735,32.540205],[130.554657,32.540183],[130.554546,32.540166],[130.554504,32.54017],[130.554467,32.540168],[130.554453,32.540088],[130.554434,32.540025],[130.554434,32.539965],[130.554401,32.539924],[130.554341,32.539886],[130.554242,32.53986],[130.5542,32.539836],[130.554138,32.53988],[130.554089,32.539883],[130.554028,32.539859],[130.554,32.539859],[130.553964,32.539864]]]]},"properties":{"id":"gsi-syamen-yatsushiro-03","class":"slope_failure_debris_deposit","class_ja":"斜面崩壊・土石流・堆積範囲","class_source":"inferred from _fillColor, cross-checked against the published legend","area_m2":1455,"upstream_fill_color":"#ff3232"}},{"type":"Feature","geometry":{"type":"MultiPolygon","coordinates":[[[[130.676522,32.528847],[130.676585,32.528905],[130.676683,32.528891],[130.676769,32.528842],[130.676856,32.528774],[130.676925,32.528706],[130.676919,32.528633],[130.676856,32.528595],[130.676718,32.52859],[130.676643,32.528624],[130.676539,32.528745],[130.676522,32.528847]]]]},"properties":{"id":"gsi-syamen-yatsushiro-04","class":"slope_failure_debris_deposit","class_ja":"斜面崩壊・土石流・堆積範囲","class_source":"inferred from _fillColor, cross-checked against the published legend","area_m2":875,"upstream_fill_color":"#ff3232"}},{"type":"Feature","geometry":{"type":"MultiPolygon","coordinates":[[[[130.720118,32.512651],[130.720066,32.51267],[130.720051,32.512702],[130.72006,32.512749],[130.720027,32.512771],[130.719963,32.512815],[130.719935,32.512839],[130.719923,32.512893],[130.719935,32.512936],[130.719937,32.51298],[130.719962,32.513001],[130.720003,32.513028],[130.720036,32.513042],[130.720085,32.513035],[130.720116,32.512978],[130.720149,32.51295],[130.720179,32.512922],[130.72021,32.512898],[130.720225,32.512888],[130.720247,32.512864],[130.720258,32.512845],[130.720261,32.512821],[130.720258,32.512791],[130.720259,32.512759],[130.720252,32.512752],[130.72022,32.512749],[130.720188,32.512737],[130.720168,32.512716],[130.720158,32.512693],[130.720152,32.512672],[130.720118,32.512651]]]]},"properties":{"id":"gsi-syamen-yatsushiro-05","class":"slope_failure_debris_deposit","class_ja":"斜面崩壊・土石流・堆積範囲","class_source":"inferred from _fillColor, cross-checked against the published legend","area_m2":807,"upstream_fill_color":"#ff3232"}},{"type":"Feature","geometry":{"type":"MultiPolygon","coordinates":[[[[130.663758,32.525165],[130.663713,32.525175],[130.663659,32.525187],[130.663612,32.525177],[130.66355,32.525157],[130.663538,32.525172],[130.663532,32.525215],[130.663526,32.52526],[130.663523,32.52529],[130.663496,32.525328],[130.663469,32.52534],[130.663407,32.525333],[130.663377,32.525335],[130.663359,32.525373],[130.66338,32.525398],[130.663428,32.525418],[130.663469,32.525456],[130.663478,32.525489],[130.663478,32.525551],[130.663451,32.525591],[130.663425,32.525654],[130.663362,32.525697],[130.663309,32.525702],[130.663255,32.525689],[130.663236,32.525694],[130.663237,32.525714],[130.663267,32.525735],[130.663303,32.525742],[130.663359,32.52574],[130.663401,32.525727],[130.663445,32.525714],[130.663463,32.525699],[130.663511,32.525662],[130.663514,32.525649],[130.663541,32.525602],[130.663553,32.525579],[130.663573,32.525544],[130.663579,32.525521],[130.663594,32.525494],[130.6636,32.525458],[130.663597,32.525426],[130.663618,32.525386],[130.663647,32.525366],[130.663674,32.525361],[130.663709,32.525353],[130.663731,32.52533],[130.663749,32.52531],[130.663764,32.525285],[130.663797,32.525248],[130.663818,32.525228],[130.663821,32.525202],[130.663803,32.525177],[130.663791,32.525167],[130.663758,32.525165]]]]},"properties":{"id":"gsi-syamen-yatsushiro-06","class":"slope_failure_debris_deposit","class_ja":"斜面崩壊・土石流・堆積範囲","class_source":"inferred from _fillColor, cross-checked against the published legend","area_m2":1063,"upstream_fill_color":"#ff3232"}},{"type":"Feature","geometry":{"type":"MultiPolygon","coordinates":[[[[130.675022,32.521583],[130.675091,32.52162],[130.675208,32.521603],[130.675335,32.521526],[130.675405,32.521436],[130.675439,32.521348],[130.675494,32.521273],[130.675528,32.52121],[130.675572,32.521159],[130.675621,32.521078],[130.675666,32.521006],[130.675731,32.520896],[130.675822,32.52081],[130.675906,32.520739],[130.676039,32.520631],[130.676142,32.520537],[130.676229,32.520456],[130.676294,32.520372],[130.676269,32.520345],[130.676154,32.52034],[130.676018,32.520374],[130.675927,32.520406],[130.67584,32.520448],[130.675772,32.520505],[130.675707,32.520574],[130.675669,32.520629],[130.675624,32.520699],[130.675595,32.520797],[130.675554,32.520874],[130.675496,32.520986],[130.67543,32.521103],[130.675366,32.521179],[130.675293,32.521271],[130.675234,32.521366],[130.675166,32.521436],[130.675098,32.521486],[130.675044,32.521515],[130.675022,32.521583]]]]},"properties":{"id":"gsi-syamen-yatsushiro-07","class":"slope_failure_debris_deposit","class_ja":"斜面崩壊・土石流・堆積範囲","class_source":"inferred from _fillColor, cross-checked against the published legend","area_m2":3363,"upstream_fill_color":"#ff3232"}},{"type":"Feature","geometry":{"type":"MultiPolygon","coordinates":[[[[130.50384,32.515703],[130.569789,32.58821],[130.584788,32.578918],[130.586332,32.578546],[130.591515,32.584865],[130.608719,32.576037],[130.621291,32.589418],[130.636841,32.579847],[130.638826,32.582635],[130.640591,32.581892],[130.643348,32.58533],[130.659008,32.577338],[130.667941,32.586631],[130.681506,32.577524],[130.68327,32.580033],[130.684152,32.580033],[130.686358,32.583378],[130.697717,32.577431],[130.700805,32.575851],[130.704665,32.579568],[130.708304,32.583657],[130.712275,32.586445],[130.724185,32.578825],[130.72606,32.581427],[130.726942,32.580869],[130.729699,32.585144],[130.744367,32.577803],[130.746242,32.580219],[130.754734,32.573528],[130.761902,32.568509],[130.771386,32.562468],[130.757711,32.549826],[130.746793,32.538577],[130.742492,32.533371],[130.730582,32.518493],[130.72209,32.509472],[130.717237,32.505101],[130.71062,32.498404],[130.707532,32.495056],[130.70268,32.487335],[130.698269,32.484172],[130.694519,32.479335],[130.690439,32.471519],[130.687461,32.470031],[130.686248,32.467053],[130.681616,32.462866],[130.680293,32.462866],[130.676322,32.459051],[130.672904,32.453747],[130.6675,32.445092],[130.664522,32.441834],[130.660883,32.437274],[130.654707,32.429548],[130.649413,32.424521],[130.644451,32.417819],[130.64026,32.41335],[130.635849,32.410743],[130.630224,32.405995],[130.626144,32.40106],[130.623938,32.396497],[130.619637,32.392959],[130.614895,32.385136],[130.609711,32.382156],[130.604087,32.376568],[130.599235,32.371445],[130.597691,32.371165],[130.590522,32.361944],[130.588978,32.357751],[130.587545,32.35682],[130.58578,32.353187],[130.580045,32.345174],[130.576296,32.342006],[130.569789,32.334832],[130.567694,32.32952],[130.564606,32.328588],[130.562069,32.326911],[130.555563,32.319828],[130.551262,32.314795],[130.547953,32.312372],[130.542329,32.304822],[130.537256,32.299415],[130.526779,32.284872],[130.524022,32.281702],[130.513655,32.269208],[130.509133,32.264358],[130.503619,32.259602],[130.490054,32.2444],[130.484761,32.247758],[130.477593,32.251768],[130.475607,32.251302],[130.450353,32.264079],[130.451566,32.268835],[130.455315,32.27359],[130.452999,32.276201],[130.440648,32.282262],[130.442964,32.284872],[130.432046,32.291212],[130.446382,32.310135],[130.431053,32.318523],[130.463035,32.355143],[130.44936,32.362968],[130.46083,32.37843],[130.473622,32.391282],[130.486195,32.408695],[130.487959,32.408043],[130.490385,32.41214],[130.504832,32.403946],[130.510347,32.409626],[130.51156,32.40916],[130.525896,32.425545],[130.525345,32.426569],[130.532403,32.435319],[130.531962,32.435785],[130.539241,32.443789],[130.525566,32.452165],[130.537035,32.464355],[130.50406,32.483242],[130.515861,32.498962],[130.517184,32.498776],[130.521375,32.504729],[130.50384,32.515703]]]]},"properties":{"id":"gsi-syamen-yatsushiro-08","class":"interpretation_extent","class_ja":"判読範囲","class_source":"inferred from _fillColor, cross-checked against the published legend","area_m2":509039132,"upstream_fill_color":"#3388ff"}},{"type":"Feature","geometry":{"type":"MultiPolygon","coordinates":[[[[130.483775,32.340013],[130.483918,32.339957],[130.483977,32.339957],[130.484102,32.339952],[130.484209,32.339857],[130.484221,32.339817],[130.484209,32.339711],[130.484161,32.339646],[130.48406,32.339536],[130.484049,32.339516],[130.483983,32.339395],[130.483954,32.33936],[130.483799,32.339229],[130.483728,32.339214],[130.483526,32.33926],[130.483401,32.33927],[130.483235,32.33929],[130.483068,32.33943],[130.483092,32.339511],[130.483252,32.339721],[130.483353,32.339852],[130.483532,32.339962],[130.483775,32.340013]]]]},"properties":{"id":"gsi-syamen-yatsushiro-09","class":"unreadable_due_to_cloud","class_ja":"雲による未判読範囲","class_source":"inferred from _fillColor, cross-checked against the published legend","area_m2":6424,"upstream_fill_color":"#646464"}},{"type":"Feature","geometry":{"type":"MultiPolygon","coordinates":[[[[130.486797,32.355825],[130.487082,32.355926],[130.488294,32.355926],[130.488817,32.355745],[130.489221,32.355343],[130.489887,32.355082],[130.49098,32.354741],[130.491194,32.35438],[130.490861,32.353858],[130.490671,32.353336],[130.491313,32.353054],[130.492311,32.352452],[130.492287,32.352171],[130.492026,32.351609],[130.491289,32.351288],[130.49079,32.351127],[130.4906,32.351067],[130.490267,32.350725],[130.490029,32.350023],[130.489982,32.3494],[130.489863,32.348677],[130.489506,32.348175],[130.489055,32.347834],[130.488484,32.347372],[130.487914,32.346187],[130.487486,32.345244],[130.487153,32.344822],[130.486939,32.344661],[130.486274,32.344661],[130.486084,32.344742],[130.485632,32.345545],[130.485466,32.346268],[130.485537,32.347232],[130.485846,32.347934],[130.486179,32.348557],[130.486203,32.349199],[130.486179,32.350023],[130.486321,32.350565],[130.486321,32.351107],[130.485632,32.351729],[130.484729,32.352051],[130.484325,32.352231],[130.484444,32.352793],[130.484301,32.353195],[130.483517,32.353677],[130.482875,32.354219],[130.483208,32.355042],[130.484111,32.355624],[130.485181,32.355705],[130.486274,32.355404],[130.48644,32.355384],[130.486797,32.355825]]]]},"properties":{"id":"gsi-syamen-yatsushiro-10","class":"unreadable_due_to_cloud","class_ja":"雲による未判読範囲","class_source":"inferred from _fillColor, cross-checked against the published legend","area_m2":537172,"upstream_fill_color":"#646464"}},{"type":"Feature","geometry":{"type":"MultiPolygon","coordinates":[[[[130.509092,32.371079],[130.509294,32.371189],[130.509591,32.371139],[130.509686,32.370989],[130.509603,32.370858],[130.509449,32.370728],[130.509449,32.370577],[130.509544,32.370376],[130.509603,32.369945],[130.509556,32.369804],[130.509342,32.369543],[130.508973,32.369232],[130.508819,32.368991],[130.508581,32.368991],[130.508403,32.369162],[130.50845,32.369473],[130.50851,32.369734],[130.508629,32.369894],[130.508712,32.370015],[130.508771,32.370276],[130.508652,32.370406],[130.508652,32.370577],[130.508747,32.370657],[130.508938,32.370798],[130.509092,32.371079]]]]},"properties":{"id":"gsi-syamen-yatsushiro-11","class":"unreadable_due_to_cloud","class_ja":"雲による未判読範囲","class_source":"inferred from _fillColor, cross-checked against the published legend","area_m2":16663,"upstream_fill_color":"#646464"}},{"type":"Feature","geometry":{"type":"MultiPolygon","coordinates":[[[[130.516754,32.375585],[130.516944,32.375525],[130.516944,32.375415],[130.51698,32.375324],[130.517063,32.375204],[130.517051,32.375043],[130.516885,32.375064],[130.51654,32.375074],[130.516148,32.375104],[130.515875,32.375254],[130.515851,32.375415],[130.515922,32.375555],[130.516029,32.375616],[130.516374,32.375676],[130.516754,32.375585]]]]},"properties":{"id":"gsi-syamen-yatsushiro-12","class":"unreadable_due_to_cloud","class_ja":"雲による未判読範囲","class_source":"inferred from _fillColor, cross-checked against the published legend","area_m2":5968,"upstream_fill_color":"#646464"}},{"type":"Feature","geometry":{"type":"MultiPolygon","coordinates":[[[[130.506754,32.367086],[130.506849,32.367127],[130.506944,32.367117],[130.507045,32.367086],[130.50714,32.367036],[130.507146,32.366926],[130.507116,32.366685],[130.507027,32.366429],[130.506986,32.366304],[130.506938,32.365797],[130.506986,32.365646],[130.507104,32.365501],[130.507176,32.365465],[130.507289,32.36532],[130.507152,32.365209],[130.507051,32.365209],[130.506795,32.365255],[130.506617,32.365335],[130.50651,32.365465],[130.506427,32.365621],[130.506374,32.365762],[130.50629,32.366028],[130.50629,32.366158],[130.506332,32.366359],[130.506403,32.366549],[130.506754,32.367086]]]]},"properties":{"id":"gsi-syamen-yatsushiro-13","class":"unreadable_due_to_cloud","class_ja":"雲による未判読範囲","class_source":"inferred from _fillColor, cross-checked against the published legend","area_m2":11734,"upstream_fill_color":"#646464"}},{"type":"Feature","geometry":{"type":"MultiPolygon","coordinates":[[[[130.517301,32.383261],[130.517129,32.38291],[130.517272,32.382717],[130.517745,32.382438],[130.518132,32.382118],[130.518118,32.381912],[130.517616,32.381821],[130.517122,32.38161],[130.516692,32.381247],[130.51652,32.380986],[130.516556,32.380496],[130.516563,32.380091],[130.515911,32.379994],[130.515424,32.380067],[130.515038,32.380188],[130.5145,32.380019],[130.514285,32.379843],[130.514443,32.379335],[130.514543,32.37844],[130.514257,32.377907],[130.51377,32.377798],[130.513934,32.378663],[130.513784,32.379111],[130.513648,32.37971],[130.513433,32.380103],[130.513297,32.38046],[130.513125,32.380781],[130.51243,32.380926],[130.511771,32.380974],[130.51137,32.38115],[130.51132,32.38161],[130.511542,32.381827],[130.511613,32.382033],[130.511692,32.382602],[130.512029,32.382692],[130.512466,32.382487],[130.512738,32.382408],[130.513046,32.382329],[130.513347,32.382342],[130.513533,32.382184],[130.513734,32.382009],[130.514185,32.381839],[130.514522,32.381827],[130.514837,32.382027],[130.515109,32.382045],[130.515174,32.381803],[130.51546,32.381737],[130.515825,32.381652],[130.515969,32.381658],[130.516076,32.381894],[130.516148,32.382142],[130.51632,32.382354],[130.516535,32.382396],[130.516721,32.382523],[130.516771,32.38268],[130.51675,32.382916],[130.51685,32.383176],[130.517043,32.383382],[130.517208,32.383406],[130.517301,32.383261]]]]},"properties":{"id":"gsi-syamen-yatsushiro-14","class":"unreadable_due_to_cloud","class_ja":"雲による未判読範囲","class_source":"inferred from _fillColor, cross-checked against the published legend","area_m2":126037,"upstream_fill_color":"#646464"}},{"type":"Feature","geometry":{"type":"MultiPolygon","coordinates":[[[[130.517201,32.377922],[130.516993,32.377922],[130.516886,32.378201],[130.516828,32.378334],[130.517144,32.378376],[130.517688,32.378219],[130.518139,32.378037],[130.518483,32.377904],[130.518755,32.377741],[130.519056,32.377674],[130.519099,32.377559],[130.518805,32.377505],[130.518562,32.377408],[130.518426,32.377323],[130.518232,32.377317],[130.518103,32.377529],[130.517974,32.377565],[130.517745,32.377565],[130.517538,32.377747],[130.517523,32.377868],[130.517201,32.377922]]]]},"properties":{"id":"gsi-syamen-yatsushiro-15","class":"unreadable_due_to_cloud","class_ja":"雲による未判読範囲","class_source":"inferred from _fillColor, cross-checked against the published legend","area_m2":10301,"upstream_fill_color":"#646464"}},{"type":"Feature","geometry":{"type":"MultiPolygon","coordinates":[[[[130.625422,32.484038],[130.625274,32.484323],[130.625189,32.484626],[130.625429,32.485054],[130.625485,32.485321],[130.625682,32.485606],[130.625957,32.48582],[130.626309,32.48588],[130.626788,32.485695],[130.626992,32.485547],[130.627422,32.485386],[130.62776,32.48519],[130.627908,32.484977],[130.628042,32.484632],[130.628246,32.484347],[130.628197,32.484109],[130.627858,32.483901],[130.627478,32.483848],[130.627133,32.483913],[130.626985,32.483985],[130.626795,32.484044],[130.626358,32.484038],[130.626105,32.483878],[130.625851,32.483818],[130.625591,32.483872],[130.625422,32.484038]]]]},"properties":{"id":"gsi-syamen-yatsushiro-16","class":"unreadable_due_to_cloud","class_ja":"雲による未判読範囲","class_source":"inferred from _fillColor, cross-checked against the published legend","area_m2":45595,"upstream_fill_color":"#646464"}},{"type":"Feature","geometry":{"type":"MultiPolygon","coordinates":[[[[130.639845,32.582156],[130.640178,32.582112],[130.640523,32.581954],[130.640868,32.581593],[130.641156,32.580858],[130.641593,32.580551],[130.642051,32.58056],[130.642394,32.580393],[130.642915,32.580335],[130.643689,32.580253],[130.643814,32.579764],[130.643261,32.579263],[130.642467,32.579507],[130.641655,32.579525],[130.641291,32.579209],[130.640689,32.579239],[130.639678,32.579437],[130.639195,32.579962],[130.639292,32.580649],[130.639403,32.581721],[130.639845,32.582156]]]]},"properties":{"id":"gsi-syamen-yatsushiro-17","class":"unreadable_due_to_cloud","class_ja":"雲による未判読範囲","class_source":"inferred from _fillColor, cross-checked against the published legend","area_m2":74668,"upstream_fill_color":"#646464"}},{"type":"Feature","geometry":{"type":"MultiPolygon","coordinates":[[[[130.57014,32.539846],[130.570531,32.540098],[130.570808,32.540137],[130.571322,32.539563],[130.571998,32.539045],[130.572956,32.538545],[130.574237,32.5381],[130.574605,32.537712],[130.574444,32.536936],[130.573846,32.536082],[130.57327,32.535655],[130.572741,32.535558],[130.572188,32.535655],[130.571751,32.536024],[130.571821,32.536501],[130.572212,32.536974],[130.572133,32.537282],[130.571958,32.537518],[130.571475,32.537945],[130.571015,32.538177],[130.57037,32.538255],[130.569979,32.538468],[130.569818,32.539109],[130.57014,32.539846]]]]},"properties":{"id":"gsi-syamen-yatsushiro-18","class":"unreadable_due_to_cloud","class_ja":"雲による未判読範囲","class_source":"inferred from _fillColor, cross-checked against the published legend","area_m2":101878,"upstream_fill_color":"#646464"}},{"type":"Feature","geometry":{"type":"MultiPolygon","coordinates":[[[[130.573938,32.534588],[130.57449,32.534685],[130.574858,32.534568],[130.575303,32.53397],[130.575848,32.533463],[130.576193,32.533249],[130.5764,32.532783],[130.576745,32.532279],[130.576976,32.531639],[130.576722,32.531386],[130.576423,32.531406],[130.576032,32.531794],[130.57548,32.532163],[130.575032,32.532461],[130.57426,32.532589],[130.5738,32.533152],[130.573661,32.534006],[130.573938,32.534588]]]]},"properties":{"id":"gsi-syamen-yatsushiro-19","class":"unreadable_due_to_cloud","class_ja":"雲による未判読範囲","class_source":"inferred from _fillColor, cross-checked against the published legend","area_m2":53562,"upstream_fill_color":"#646464"}},{"type":"Feature","geometry":{"type":"MultiPolygon","coordinates":[[[[130.728357,32.535937],[130.728018,32.535896],[130.727752,32.535978],[130.727583,32.536161],[130.72751,32.536304],[130.727462,32.536691],[130.727535,32.536956],[130.727752,32.537119],[130.728018,32.537221],[130.728163,32.537282],[130.728864,32.537445],[130.729227,32.537466],[130.729638,32.537425],[130.729952,32.537364],[130.730339,32.537201],[130.730678,32.536936],[130.730895,32.536773],[130.731331,32.536569],[130.73179,32.536426],[130.732177,32.536263],[130.732515,32.53608],[130.732805,32.535978],[130.733289,32.535835],[130.733918,32.535611],[130.734377,32.535529],[130.734885,32.535305],[130.735489,32.534816],[130.735973,32.534408],[130.736456,32.53396],[130.736722,32.533674],[130.736746,32.533246],[130.736698,32.533124],[130.736214,32.532981],[130.736021,32.532879],[130.735755,32.532696],[130.735368,32.532472],[130.734981,32.532329],[130.734691,32.532125],[130.734449,32.531901],[130.733869,32.53186],[130.733652,32.531962],[130.733434,32.532553],[130.733192,32.532594],[130.732467,32.532533],[130.73208,32.532676],[130.731572,32.533083],[130.731089,32.533511],[130.730243,32.533878],[130.729928,32.533715],[130.729783,32.533328],[130.729952,32.532941],[130.730629,32.532574],[130.73092,32.532268],[130.730654,32.531921],[130.729832,32.531799],[130.729203,32.532023],[130.728816,32.532635],[130.72884,32.533246],[130.729179,32.534204],[130.729203,32.535081],[130.728357,32.535937]]]]},"properties":{"id":"gsi-syamen-yatsushiro-20","class":"unreadable_due_to_cloud","class_ja":"雲による未判読範囲","class_source":"inferred from _fillColor, cross-checked against the published legend","area_m2":292932,"upstream_fill_color":"#646464"}}]}